{
  "type": "FeatureCollection",
  "features": [
    {
      "type": "Feature",
      "properties": {
        "norad_id": 30389,
        "name": "FENGYUN 1C DEB",
        "group": "fengyun-1c-debris",
        "lat": 54.36040301824055,
        "lon": -86.97405231434318,
        "alt_km": 734.8112910273412,
        "timestamp": "2025-12-24T18:55:56.344419+00:00",
        "meta_object_name": "FENGYUN 1C DEB",
        "meta_object_id": "1999-025ADC",
        "meta_epoch": "2025-12-24T05:18:30.275136",
        "meta_mean_motion": 14.44224196,
        "meta_eccentricity": 0.00147003,
        "meta_inclination": 98.8374,
        "meta_ra_of_asc_node": 79.904,
        "meta_arg_of_pericenter": 190.5726,
        "meta_mean_anomaly": 224.4716,
        "meta_ephemeris_type": 0,
        "meta_classification_type": "U",
        "meta_norad_cat_id": 30389,
        "meta_element_set_no": 999,
        "meta_rev_at_epoch": 97952,
        "meta_bstar": 0.0025210674,
        "meta_mean_motion_dot": 8.631e-05,
        "meta_mean_motion_ddot": 0,
        "tle_line1": "1 30389U 99025ADC 25358.22118374  .00008631  00000+0  25211-2 0  9999",
        "tle_line2": "2 30389  98.8374  79.9040 0014700 190.5726 224.4716 14.44224196979520"
      },
      "geometry": {
        "type": "Point",
        "coordinates": [
          -86.97405231434318,
          54.36040301824055
        ]
      }
    },
    {
      "type": "Feature",
      "properties": {
        "norad_id": 30390,
        "name": "FENGYUN 1C DEB",
        "group": "fengyun-1c-debris",
        "lat": 62.740421112353935,
        "lon": 64.60974793100971,
        "alt_km": 765.9987732855216,
        "timestamp": "2025-12-24T18:55:56.344429+00:00",
        "meta_object_name": "FENGYUN 1C DEB",
        "meta_object_id": "1999-025ADD",
        "meta_epoch": "2025-12-24T05:19:11.456832",
        "meta_mean_motion": 14.29826892,
        "meta_eccentricity": 0.00677338,
        "meta_inclination": 98.8223,
        "meta_ra_of_asc_node": 81.5783,
        "meta_arg_of_pericenter": 131.6584,
        "meta_mean_anomaly": 255.3289,
        "meta_ephemeris_type": 0,
        "meta_classification_type": "U",
        "meta_norad_cat_id": 30390,
        "meta_element_set_no": 999,
        "meta_rev_at_epoch": 97548,
        "meta_bstar": 0.0017392471,
        "meta_mean_motion_dot": 4.542e-05,
        "meta_mean_motion_ddot": 0,
        "tle_line1": "1 30390U 99025ADD 25358.22166038  .00004542  00000+0  17392-2 0  9999",
        "tle_line2": "2 30390  98.8223  81.5783 0067733 131.6584 255.3289 14.29826892975483"
      },
      "geometry": {
        "type": "Point",
        "coordinates": [
          64.60974793100971,
          62.740421112353935
        ]
      }
    },
    {
      "type": "Feature",
      "properties": {
        "norad_id": 30391,
        "name": "FENGYUN 1C DEB",
        "group": "fengyun-1c-debris",
        "lat": 66.03101883294322,
        "lon": -115.03294426503832,
        "alt_km": 853.2527253349463,
        "timestamp": "2025-12-24T18:55:56.344439+00:00",
        "meta_object_name": "FENGYUN 1C DEB",
        "meta_object_id": "1999-025ADE",
        "meta_epoch": "2025-12-24T03:27:06.818688",
        "meta_mean_motion": 14.16285852,
        "meta_eccentricity": 0.00719857,
        "meta_inclination": 98.7795,
        "meta_ra_of_asc_node": 43.99,
        "meta_arg_of_pericenter": 229.3686,
        "meta_mean_anomaly": 196.8627,
        "meta_ephemeris_type": 0,
        "meta_classification_type": "U",
        "meta_norad_cat_id": 30391,
        "meta_element_set_no": 999,
        "meta_rev_at_epoch": 97040,
        "meta_bstar": 0.0011806402,
        "meta_mean_motion_dot": 2.357e-05,
        "meta_mean_motion_ddot": 0,
        "tle_line1": "1 30391U 99025ADE 25358.14382892  .00002357  00000+0  11806-2 0  9995",
        "tle_line2": "2 30391  98.7795  43.9900 0071985 229.3686 196.8627 14.16285852970405"
      },
      "geometry": {
        "type": "Point",
        "coordinates": [
          -115.03294426503832,
          66.03101883294322
        ]
      }
    },
    {
      "type": "Feature",
      "properties": {
        "norad_id": 30392,
        "name": "FENGYUN 1C DEB",
        "group": "fengyun-1c-debris",
        "lat": 79.35572403103667,
        "lon": -38.31841559729163,
        "alt_km": 926.4920005832764,
        "timestamp": "2025-12-24T18:55:56.344450+00:00",
        "meta_object_name": "FENGYUN 1C DEB",
        "meta_object_id": "1999-025ADF",
        "meta_epoch": "2025-12-23T23:51:56.700000",
        "meta_mean_motion": 14.07478535,
        "meta_eccentricity": 0.0180519,
        "meta_inclination": 98.7852,
        "meta_ra_of_asc_node": 16.2748,
        "meta_arg_of_pericenter": 325.0997,
        "meta_mean_anomaly": 53.9699,
        "meta_ephemeris_type": 0,
        "meta_classification_type": "U",
        "meta_norad_cat_id": 30392,
        "meta_element_set_no": 999,
        "meta_rev_at_epoch": 96829,
        "meta_bstar": 0.00061655,
        "meta_mean_motion_dot": 1.161e-05,
        "meta_mean_motion_ddot": 0,
        "tle_line1": "1 30392U 99025ADF 25357.99440625  .00001161  00000+0  61655-3 0  9997",
        "tle_line2": "2 30392  98.7852  16.2748 0180519 325.0997  53.9699 14.07478535968294"
      },
      "geometry": {
        "type": "Point",
        "coordinates": [
          -38.31841559729163,
          79.35572403103667
        ]
      }
    },
    {
      "type": "Feature",
      "properties": {
        "norad_id": 30393,
        "name": "FENGYUN 1C DEB",
        "group": "fengyun-1c-debris",
        "lat": 12.140749333475755,
        "lon": -121.4357856997782,
        "alt_km": 872.066038088401,
        "timestamp": "2025-12-24T18:55:56.344460+00:00",
        "meta_object_name": "FENGYUN 1C DEB",
        "meta_object_id": "1999-025ADG",
        "meta_epoch": "2025-12-24T02:46:22.255104",
        "meta_mean_motion": 13.98992432,
        "meta_eccentricity": 0.00700337,
        "meta_inclination": 99.1639,
        "meta_ra_of_asc_node": 55.9011,
        "meta_arg_of_pericenter": 228.5999,
        "meta_mean_anomaly": 150.4766,
        "meta_ephemeris_type": 0,
        "meta_classification_type": "U",
        "meta_norad_cat_id": 30393,
        "meta_element_set_no": 999,
        "meta_rev_at_epoch": 96489,
        "meta_bstar": 0.00011703997,
        "meta_mean_motion_dot": 1.27e-06,
        "meta_mean_motion_ddot": 0,
        "tle_line1": "1 30393U 99025ADG 25358.11553536  .00000127  00000+0  11704-3 0  9990",
        "tle_line2": "2 30393  99.1639  55.9011 0070033 228.5999 150.4766 13.98992432964890"
      },
      "geometry": {
        "type": "Point",
        "coordinates": [
          -121.4357856997782,
          12.140749333475755
        ]
      }
    },
    {
      "type": "Feature",
      "properties": {
        "norad_id": 30394,
        "name": "FENGYUN 1C DEB",
        "group": "fengyun-1c-debris",
        "lat": -1.4027760603836466,
        "lon": 27.569579120092055,
        "alt_km": 888.9783021084304,
        "timestamp": "2025-12-24T18:55:56.344470+00:00",
        "meta_object_name": "FENGYUN 1C DEB",
        "meta_object_id": "1999-025ADH",
        "meta_epoch": "2025-12-24T01:50:53.725344",
        "meta_mean_motion": 13.95793858,
        "meta_eccentricity": 0.00897676,
        "meta_inclination": 99.4335,
        "meta_ra_of_asc_node": 26.6078,
        "meta_arg_of_pericenter": 71.0292,
        "meta_mean_anomaly": 313.6838,
        "meta_ephemeris_type": 0,
        "meta_classification_type": "U",
        "meta_norad_cat_id": 30394,
        "meta_element_set_no": 999,
        "meta_rev_at_epoch": 96262,
        "meta_bstar": 0.00031109683,
        "meta_mean_motion_dot": 3.93e-06,
        "meta_mean_motion_ddot": 0,
        "tle_line1": "1 30394U 99025ADH 25358.07701071  .00000393  00000+0  31110-3 0  9993",
        "tle_line2": "2 30394  99.4335  26.6078 0089767  71.0292 313.6838 13.95793858962626"
      },
      "geometry": {
        "type": "Point",
        "coordinates": [
          27.569579120092055,
          -1.4027760603836466
        ]
      }
    },
    {
      "type": "Feature",
      "properties": {
        "norad_id": 30395,
        "name": "FENGYUN 1C DEB",
        "group": "fengyun-1c-debris",
        "lat": -8.507808581842106,
        "lon": -167.34565026581933,
        "alt_km": 1021.2217325613965,
        "timestamp": "2025-12-24T18:55:56.344480+00:00",
        "meta_object_name": "FENGYUN 1C DEB",
        "meta_object_id": "1999-025ADJ",
        "meta_epoch": "2025-12-23T23:24:02.059776",
        "meta_mean_motion": 13.9670636,
        "meta_eccentricity": 0.0159867,
        "meta_inclination": 98.93,
        "meta_ra_of_asc_node": 13.2118,
        "meta_arg_of_pericenter": 355.2349,
        "meta_mean_anomaly": 63.9809,
        "meta_ephemeris_type": 0,
        "meta_classification_type": "U",
        "meta_norad_cat_id": 30395,
        "meta_element_set_no": 999,
        "meta_rev_at_epoch": 96180,
        "meta_bstar": 0.00047855,
        "meta_mean_motion_dot": 6.96e-06,
        "meta_mean_motion_ddot": 0,
        "tle_line1": "1 30395U 99025ADJ 25357.97502384  .00000696  00000+0  47855-3 0  9997",
        "tle_line2": "2 30395  98.9300  13.2118 0159867 355.2349  63.9809 13.96706360961804"
      },
      "geometry": {
        "type": "Point",
        "coordinates": [
          -167.34565026581933,
          -8.507808581842106
        ]
      }
    }
  ]
}